ONEWEB-0156             
1 48052U 21025L   25105.53331327 -.00000005  00000+0 -49066-4 0  9994
2 48052  87.8977  45.1951 0001840  83.4965 276.6373 13.13471794197449
ONEWEB-0161             
1 48053U 21025M   25104.89850458  .00000383  00000+0  10133-2 0  9992
2 48053  87.8979  45.3367 0001775  83.4300 276.7031 13.13472623197281
ONEWEB-0158             
1 48054U 21025N   25104.85788003 -.00000274  00000+0 -78470-3 0  9995
2 48054  87.8977  45.3264 0002041  82.5971 277.5390 13.13470945197403
ONEWEB-0157             
1 48055U 21025P   25105.18796785 -.00000836  00000+0 -23244-2 0  9991
2 48055  87.8975  45.2725 0001674  90.6044 269.5277 13.13476198197394
ONEWEB-0162             
1 48056U 21025Q   25104.85942258 -.00000319  00000+0 -90896-3 0  9997
2 48056  87.8975  45.3358 0001895  81.8600 278.2744 13.13470089197314
ONEWEB-0155             
1 48057U 21025R   25105.32340079 -.00000223  00000+0 -64626-3 0  9990
2 48057  87.8976  45.2521 0001714  77.8411 282.2910 13.13469431197524
ONEWEB-0149             
1 48058U 21025S   25105.19305668  .00000236  00000+0  61119-3 0  9997
2 48058  87.8975  45.2734 0002097  85.7544 274.3825 13.13472165197312
ONEWEB-0148             
1 48059U 21025T   25104.85110258 -.00000211  00000+0 -61150-3 0  9999
2 48059  87.8978  45.3613 0002159  98.2993 261.8381 13.13471962197388
ONEWEB-0160             
1 48060U 21025U   25104.86803679 -.00000168  00000+0 -49472-3 0  9992
2 48060  87.8979  45.3552 0002604  66.4692 293.6711 13.13469099197334
ONEWEB-0163             
1 48061U 21025V   25105.08132990 -.00000230  00000+0 -66580-3 0  9998
2 48061  87.8976  45.2962 0001677  84.9043 275.2278 13.13471267197491
ONEWEB-0159             
1 48062U 21025W   25104.84434129 -.00000029  00000+0 -11518-3 0  9998
2 48062  87.8976  45.3252 0001813  87.2189 272.9148 13.13469274197376
ONEWEB-0164             
1 48063U 21025X   25104.90189139  .00000378  00000+0  10007-2 0  9990
2 48063  87.8977  45.3242 0001912  78.3691 281.7653 13.13472523197365
ONEWEB-0167             
1 48064U 21025Y   25105.08219420 -.00000221  00000+0 -63989-3 0  9995
2 48064  87.8986  45.3104 0001131  70.2622 289.8629 13.13470279197370
ONEWEB-0166             
1 48065U 21025Z   25104.80032399 -.00000004  00000+0 -45185-4 0  9991
2 48065  87.8971  45.3319 0001998  85.8704 274.2654 13.13471974197411
ONEWEB-0151             
1 48066U 21025AA  25104.80201929  .00000071  00000+0  15834-3 0  9998
2 48066  87.8973  45.3523 0001794  76.8299 283.3030 13.13471444197358
ONEWEB-0170             
1 48067U 21025AB  25104.81048735  .00000224  00000+0  57749-3 0  9995
2 48067  87.8975  45.3555 0001964  64.4683 295.6649 13.13471266197315
ONEWEB-0168             
1 48068U 21025AC  25104.87141751 -.00000107  00000+0 -32873-3 0  9997
2 48068  87.8977  45.3215 0001853  80.0736 280.0602 13.13470443197336
ONEWEB-0173             
1 48069U 21025AD  25105.09149829 -.00000219  00000+0 -63416-3 0  9998
2 48069  87.8982  45.2865 0001420  83.0281 277.1009 13.13470663197603
ONEWEB-0171             
1 48070U 21025AE  25104.90019704  .00000372  00000+0  98432-3 0  9991
2 48070  87.8981  45.3619 0001820  76.6974 283.4358 13.13471792197390
ONEWEB-0172             
1 48071U 21025AF  25104.87988596  .00000022  00000+0  25313-4 0  9993
2 48071  87.8978  45.3323 0001734  77.4595 282.6728 13.13471222198280
ONEWEB-0174             
1 48072U 21025AG  25105.08979317 -.00000268  00000+0 -76892-3 0  9990
2 48072  87.8980  45.3042 0001919  83.2618 276.8729 13.13472258197632
ONEWEB-0175             
1 48073U 21025AH  25104.89173127 -.00000055  00000+0 -18580-3 0  9998
2 48073  87.8971  45.3150 0001816  70.6106 289.5220 13.13470216197269
ONEWEB-0177             
1 48074U 21025AJ  25104.90358571  .00000340  00000+0  89517-3 0  9992
2 48074  87.8976  45.3250 0001726  87.7339 272.3988 13.13471428197451
ONEWEB-0178             
1 48075U 21025AK  25104.84616078 -.00000106  00000+0 -32422-3 0  9990
2 48075  87.8981  45.3754 0001688  82.0517 278.0804 13.13469177197492
ONEWEB-0108             
1 48076U 21025AL  25105.18629052  .00000057  00000+0  12173-3 0  9999
2 48076  87.8973  45.2643 0002151  81.7260 278.4113 13.13471038197471
ONEWEB-0169             
1 48077U 21025AM  25104.83756408  .00000179  00000+0  45529-3 0  9993
2 48077  87.8978  45.3516 0002167  81.3787 278.7587 13.13471500196071
ONEWEB-0176             
1 48210U 21031A   25104.71197118 -.00000029  00000+0 -11299-3 0  9996
2 48210  87.9093  14.9161 0001843  77.3736 282.7599 13.14504615192020
ONEWEB-0184             
1 48211U 21031B   25105.44618849  .00000033  00000+0  54586-4 0  9997
2 48211  87.9091  14.7436 0001331  50.4894 309.6353 13.14501330192096
ONEWEB-0179             
1 48212U 21031C   25104.73178761 -.00000256  00000+0 -72385-3 0  9998
2 48212  87.9091  14.8996 0001842  82.1558 277.9781 13.14503414192047
ONEWEB-0180             
1 48213U 21031D   25104.76430407 -.00000083  00000+0 -25782-3 0  9997
2 48213  87.9094  14.8827 0001609  77.8986 282.2324 13.14501105191935
ONEWEB-0218             
1 48214U 21031E   25104.71037672 -.00000420  00000+0 -11680-2 0  9996
2 48214  87.9089  14.8943 0001053  53.8995 306.2232 13.14503515192085
ONEWEB-0209             
1 48215U 21031F   25105.46045891 -.00000137  00000+0 -40324-3 0  9995
2 48215  87.9097  14.7872 0001766  84.0907 276.0424 13.14504171192182
ONEWEB-0198             
1 48216U 21031G   25104.75954676 -.00000031  00000+0 -11928-3 0  9998
2 48216  87.9094  14.9282 0001439  77.9513 282.1778 13.14502002192202
ONEWEB-0189             
1 48217U 21031H   25105.15281636 -.00000109  00000+0 -32833-3 0  9997
2 48217  87.9093  14.8244 0001379  80.5727 279.5558 13.14504493191996
ONEWEB-0196             
1 48218U 21031J   25105.28286219  .00000244  00000+0  62459-3 0  9999
2 48218  87.9094  14.8088 0001740  78.0255 282.1070 13.14502185192002
ONEWEB-0183             
1 48219U 21031K   25104.72465141  .00000105  00000+0  24753-3 0  9992
2 48219  87.9092  14.9325 0001917  83.5974 276.5374 13.14505788192030
ONEWEB-0185             
1 48220U 21031L   25104.75082233  .00000154  00000+0  38128-3 0  9999
2 48220  87.9091  14.8968 0001706  86.7662 273.3663 13.14505122191967
ONEWEB-0187             
1 48221U 21031M   25104.73086482  .00000268  00000+0  68769-3 0  9998
2 48221  87.9093  14.9424 0001657  88.5207 271.6112 13.14501589191972
ONEWEB-0192             
1 48222U 21031N   25104.70086931 -.00000514  00000+0 -14214-2 0  9996
2 48222  87.9095  14.9413 0001770  78.0074 282.1254 13.14502622191888
ONEWEB-0219             
1 48223U 21031P   25104.75637738  .00000021  00000+0  22553-4 0  9997
2 48223  87.9097  14.9036 0001715  83.7377 276.3948 13.14500834192092
ONEWEB-0202             
1 48224U 21031Q   25104.73735081  .00000271  00000+0  69722-3 0  9991
2 48224  87.9093  14.9229 0001042  70.3684 289.7558 13.14501848192078
ONEWEB-0204             
1 48225U 21031R   25104.69531294 -.00000119  00000+0 -35631-3 0  9992
2 48225  87.9085  14.9427 0002091  83.6895 276.4473 13.14501071191960
ONEWEB-0205             
1 48226U 21031S   25104.97520809  .00000209  00000+0  52817-3 0  9997
2 48226  87.9092  14.8593 0001749  84.9270 275.2059 13.14504854192018
ONEWEB-0206             
1 48227U 21031T   25104.71989726  .00000055  00000+0  11293-3 0  9999
2 48227  87.9088  14.8918 0001830  82.0065 278.1272 13.14503939191939
ONEWEB-0182             
1 48228U 21031U   25105.17183672 -.00001410  00000+0 -38387-2 0  9997
2 48228  87.9095  14.8424 0001958  79.3011 280.8339 13.14509806192216
ONEWEB-0186             
1 48229U 21031V   25105.48742194  .00000131  00000+0  31816-3 0  9990
2 48229  87.9091  14.7415 0001748  81.7093 278.4235 13.14504517192207
ONEWEB-0181             
1 48230U 21031W   25104.70404349 -.00000161  00000+0 -46914-3 0  9993
2 48230  87.9094  14.9679 0001698  79.5429 280.5892 13.14504341191946
ONEWEB-0188             
1 48231U 21031X   25104.81822070  .00000313  00000+0  80972-3 0  9990
2 48231  87.9095  14.9377 0001821  81.0737 279.0599 13.14504572191865
ONEWEB-0220             
1 48232U 21031Y   25104.70562211 -.00000110  00000+0 -33080-3 0  9992
2 48232  87.9087  14.9067 0001729  89.2881 270.8447 13.14505673192113
ONEWEB-0165             
1 48233U 21031Z   25104.73417036  .00000238  00000+0  60858-3 0  9992
2 48233  87.9093  14.9378 0001696  82.7177 277.4145 13.14504663192076
ONEWEB-0199             
1 48234U 21031AA  25104.71831317  .00000061  00000+0  12932-3 0  9997
2 48234  87.9090  14.9058 0001958  76.2214 283.9134 13.14504553191976
ONEWEB-0203             
1 48235U 21031AB  25104.70879871 -.00000094  00000+0 -28683-3 0  9992
2 48235  87.9092  14.9102 0001847  66.8447 293.2877 13.14504545191989
ONEWEB-0197             
1 48236U 21031AC  25104.76033747 -.00000032  00000+0 -11999-3 0  9997
2 48236  87.9090  14.9107 0002083  85.2982 274.8385 13.14501629191906
ONEWEB-0194             
1 48237U 21031AD  25104.73893275  .00000238  00000+0  60820-3 0  9998
2 48237  87.9094  14.9111 0001929  71.9479 288.1861 13.14504656192076
ONEWEB-0193             
1 48238U 21031AE  25104.75479145  .00000069  00000+0  15255-3 0  9991
2 48238  87.9096  14.9157 0001707  74.9787 285.1531 13.14502243192024
ONEWEB-0191             
1 48239U 21031AF  25104.76588981 -.00000130  00000+0 -38439-3 0  9992
2 48239  87.9094  14.8880 0001757  70.2195 289.9125 13.14501024191882
ONEWEB-0195             
1 48240U 21031AG  25104.97124504  .00000309  00000+0  79906-3 0  9994
2 48240  87.9091  14.8455 0001411  81.1331 278.9958 13.14504877191891
ONEWEB-0201             
1 48241U 21031AH  25104.73115341  .00000227  00000+0  57728-3 0  9995
2 48241  87.9091  14.9373 0001800  85.7269 274.4066 13.14505245192098
ONEWEB-0207             
1 48242U 21031AJ  25104.71118295 -.00000076  00000+0 -23853-3 0  9991
2 48242  87.9092  14.9034 0001944  85.8741 274.2611 13.14503853192007
